COSMOS 1933             
1 18958U 88020A   26058.04494086  .00004516  00000+0  22155-3 0  9998
2 18958  82.5100 261.4458 0002948 223.1491 136.9512 15.17871097 48616
SL-3 R/B                
1 19046U 88032B   26058.19837323  .00005746  00000+0  26989-3 0  9996
2 19046  97.5172  41.4890 0024052 271.0201  88.8278 15.19760712 50516
SL-16 R/B               
1 19120U 88039B   26058.26998097  .00000150  00000+0  93672-4 0  9998
2 19120  71.0129  90.5824 0022133 349.8372  10.2302 14.19614247956906
COSMOS 1953             
1 19210U 88050A   26058.28145127  .00009110  00000+0  32863-3 0  9990
2 19210  82.5105 168.7101 0012022 156.5011 203.6780 15.28302322 36199
SL-8 R/B                
1 19257U 88053B   26058.22172302  .00000231  00000+0  83386-4 0  9995
2 19257  74.0475 131.7614 0021132 312.6407  77.2774 14.38908545975099
COSMOS 1975             
1 19573U 88093A   26058.24670397  .00008714  00000+0  31843-3 0  9993
2 19573  82.5206 128.1658 0011343 197.9402 162.1439 15.27881839 17810
SL-14 R/B               
1 19574U 88093B   26058.08957066  .00000546  00000+0  59911-4 0  9999
2 19574  82.5285  51.9960 0022303  74.4542 355.4191 14.85641177999463
SL-16 R/B               
1 19650U 88102B   26058.30967295 -.00000243  00000+0 -98335-4 0  9994
2 19650  71.0002 173.3357 0013328  17.3926 342.7651 14.16150107925423
INTERCOSMOS 24          
1 20261U 89080A   26058.23855438  .00000632  00000+0  18697-3 0  9999
2 20261  82.6039 111.2095 1186973 317.1022  34.3153 12.59539459665481
SL-14 R/B               
1 20262U 89080C   26058.31328619  .00000643  00000+0  19179-3 0  9993
2 20262  82.5970 179.8456 1230159 208.4642 144.3625 12.50477932658859
DELTA 1 R/B             
1 20323U 89089B   26058.13642171  .00000354  00000+0  96008-4 0  9998
2 20323  97.0712 267.2532 0069762 154.8827 205.5791 14.50652937894204
ARIANE 40 R/B           
1 20443U 90005H   26058.18136289  .00000273  00000+0  10046-3 0  9991
2 20443  98.3107 119.1548 0009216 231.5826 128.4535 14.39862449891294
