CCSDS_OMM_VERS = 2.0
CREATION_DATE  = 
ORIGINATOR     = 

OBJECT_NAME    = COSMOS 1933
OBJECT_ID      = 1988-020A
CENTER_NAME    = EARTH
REF_FRAME      = TEME
TIME_SYSTEM    = UTC
MEAN_ELEMENT_THEORY = SGP/SGP4

EPOCH          = 2026-02-27T01:04:42.890304
MEAN_MOTION    = 15.17871097
ECCENTRICITY   = .00029485
INCLINATION    = 82.5100
RA_OF_ASC_NODE = 261.4458
ARG_OF_PERICENTER = 223.1491
MEAN_ANOMALY   = 136.9512

EPHEMERIS_TYPE = 0
CLASSIFICATION_TYPE = U
NORAD_CAT_ID   = 18958
ELEMENT_SET_NO = 999
REV_AT_EPOCH   = 4861
BSTAR          = .22155085E-3
MEAN_MOTION_DOT = .4516E-4
MEAN_MOTION_DDOT = 0

CCSDS_OMM_VERS = 2.0
CREATION_DATE  = 
ORIGINATOR     = 

OBJECT_NAME    = SL-3 R/B
OBJECT_ID      = 1988-032B
CENTER_NAME    = EARTH
REF_FRAME      = TEME
TIME_SYSTEM    = UTC
MEAN_ELEMENT_THEORY = SGP/SGP4

EPOCH          = 2026-02-27T04:45:39.447072
MEAN_MOTION    = 15.19760712
ECCENTRICITY   = .00240526
INCLINATION    = 97.5172
RA_OF_ASC_NODE = 41.4890
ARG_OF_PERICENTER = 271.0201
MEAN_ANOMALY   = 88.8278

EPHEMERIS_TYPE = 0
CLASSIFICATION_TYPE = U
NORAD_CAT_ID   = 19046
ELEMENT_SET_NO = 999
REV_AT_EPOCH   = 5051
BSTAR          = .26989267E-3
MEAN_MOTION_DOT = .5746E-4
MEAN_MOTION_DDOT = 0

CCSDS_OMM_VERS = 2.0
CREATION_DATE  = 
ORIGINATOR     = 

OBJECT_NAME    = SL-16 R/B
OBJECT_ID      = 1988-039B
CENTER_NAME    = EARTH
REF_FRAME      = TEME
TIME_SYSTEM    = UTC
MEAN_ELEMENT_THEORY = SGP/SGP4

EPOCH          = 2026-02-27T06:28:46.355808
MEAN_MOTION    = 14.19614247
ECCENTRICITY   = .00221334
INCLINATION    = 71.0129
RA_OF_ASC_NODE = 90.5824
ARG_OF_PERICENTER = 349.8372
MEAN_ANOMALY   = 10.2302

EPHEMERIS_TYPE = 0
CLASSIFICATION_TYPE = U
NORAD_CAT_ID   = 19120
ELEMENT_SET_NO = 999
REV_AT_EPOCH   = 95690
BSTAR          = .93671942E-4
MEAN_MOTION_DOT = .15E-5
MEAN_MOTION_DDOT = 0

CCSDS_OMM_VERS = 2.0
CREATION_DATE  = 
ORIGINATOR     = 

OBJECT_NAME    = COSMOS 1953
OBJECT_ID      = 1988-050A
CENTER_NAME    = EARTH
REF_FRAME      = TEME
TIME_SYSTEM    = UTC
MEAN_ELEMENT_THEORY = SGP/SGP4

EPOCH          = 2026-02-27T06:45:17.389728
MEAN_MOTION    = 15.28302322
ECCENTRICITY   = .00120229
INCLINATION    = 82.5105
RA_OF_ASC_NODE = 168.7101
ARG_OF_PERICENTER = 156.5011
MEAN_ANOMALY   = 203.6780

EPHEMERIS_TYPE = 0
CLASSIFICATION_TYPE = U
NORAD_CAT_ID   = 19210
ELEMENT_SET_NO = 999
REV_AT_EPOCH   = 3619
BSTAR          = .32862781E-3
MEAN_MOTION_DOT = .911E-4
MEAN_MOTION_DDOT = 0

CCSDS_OMM_VERS = 2.0
CREATION_DATE  = 
ORIGINATOR     = 

OBJECT_NAME    = SL-8 R/B
OBJECT_ID      = 1988-053B
CENTER_NAME    = EARTH
REF_FRAME      = TEME
TIME_SYSTEM    = UTC
MEAN_ELEMENT_THEORY = SGP/SGP4

EPOCH          = 2026-02-27T05:19:16.868928
MEAN_MOTION    = 14.38908545
ECCENTRICITY   = .00211326
INCLINATION    = 74.0475
RA_OF_ASC_NODE = 131.7614
ARG_OF_PERICENTER = 312.6407
MEAN_ANOMALY   = 77.2774

EPHEMERIS_TYPE = 0
CLASSIFICATION_TYPE = U
NORAD_CAT_ID   = 19257
ELEMENT_SET_NO = 999
REV_AT_EPOCH   = 97509
BSTAR          = .83385549E-4
MEAN_MOTION_DOT = .231E-5
MEAN_MOTION_DDOT = 0

CCSDS_OMM_VERS = 2.0
CREATION_DATE  = 
ORIGINATOR     = 

OBJECT_NAME    = COSMOS 1975
OBJECT_ID      = 1988-093A
CENTER_NAME    = EARTH
REF_FRAME      = TEME
TIME_SYSTEM    = UTC
MEAN_ELEMENT_THEORY = SGP/SGP4

EPOCH          = 2026-02-27T05:55:15.223008
MEAN_MOTION    = 15.27881839
ECCENTRICITY   = .00113435
INCLINATION    = 82.5206
RA_OF_ASC_NODE = 128.1658
ARG_OF_PERICENTER = 197.9402
MEAN_ANOMALY   = 162.1439

EPHEMERIS_TYPE = 0
CLASSIFICATION_TYPE = U
NORAD_CAT_ID   = 19573
ELEMENT_SET_NO = 999
REV_AT_EPOCH   = 1781
BSTAR          = .31843422E-3
MEAN_MOTION_DOT = .8714E-4
MEAN_MOTION_DDOT = 0

CCSDS_OMM_VERS = 2.0
CREATION_DATE  = 
ORIGINATOR     = 

OBJECT_NAME    = SL-14 R/B
OBJECT_ID      = 1988-093B
CENTER_NAME    = EARTH
REF_FRAME      = TEME
TIME_SYSTEM    = UTC
MEAN_ELEMENT_THEORY = SGP/SGP4

EPOCH          = 2026-02-27T02:08:58.905024
MEAN_MOTION    = 14.85641177
ECCENTRICITY   = .00223032
INCLINATION    = 82.5285
RA_OF_ASC_NODE = 51.9960
ARG_OF_PERICENTER = 74.4542
MEAN_ANOMALY   = 355.4191

EPHEMERIS_TYPE = 0
CLASSIFICATION_TYPE = U
NORAD_CAT_ID   = 19574
ELEMENT_SET_NO = 999
REV_AT_EPOCH   = 99946
BSTAR          = .59911423E-4
MEAN_MOTION_DOT = .546E-5
MEAN_MOTION_DDOT = 0

CCSDS_OMM_VERS = 2.0
CREATION_DATE  = 
ORIGINATOR     = 

OBJECT_NAME    = SL-16 R/B
OBJECT_ID      = 1988-102B
CENTER_NAME    = EARTH
REF_FRAME      = TEME
TIME_SYSTEM    = UTC
MEAN_ELEMENT_THEORY = SGP/SGP4

EPOCH          = 2026-02-27T07:25:55.742880
MEAN_MOTION    = 14.16150107
ECCENTRICITY   = .00133288
INCLINATION    = 71.0002
RA_OF_ASC_NODE = 173.3357
ARG_OF_PERICENTER = 17.3926
MEAN_ANOMALY   = 342.7651

EPHEMERIS_TYPE = 0
CLASSIFICATION_TYPE = U
NORAD_CAT_ID   = 19650
ELEMENT_SET_NO = 999
REV_AT_EPOCH   = 92542
BSTAR          = -.98334533E-4
MEAN_MOTION_DOT = -.243E-5
MEAN_MOTION_DDOT = 0

CCSDS_OMM_VERS = 2.0
CREATION_DATE  = 
ORIGINATOR     = 

OBJECT_NAME    = INTERCOSMOS 24
OBJECT_ID      = 1989-080A
CENTER_NAME    = EARTH
REF_FRAME      = TEME
TIME_SYSTEM    = UTC
MEAN_ELEMENT_THEORY = SGP/SGP4

EPOCH          = 2026-02-27T05:43:31.098432
MEAN_MOTION    = 12.59539459
ECCENTRICITY   = .11869734
INCLINATION    = 82.6039
RA_OF_ASC_NODE = 111.2095
ARG_OF_PERICENTER = 317.1022
MEAN_ANOMALY   = 34.3153

EPHEMERIS_TYPE = 0
CLASSIFICATION_TYPE = U
NORAD_CAT_ID   = 20261
ELEMENT_SET_NO = 999
REV_AT_EPOCH   = 66548
BSTAR          = .18697382E-3
MEAN_MOTION_DOT = .632E-5
MEAN_MOTION_DDOT = 0

CCSDS_OMM_VERS = 2.0
CREATION_DATE  = 
ORIGINATOR     = 

OBJECT_NAME    = SL-14 R/B
OBJECT_ID      = 1989-080C
CENTER_NAME    = EARTH
REF_FRAME      = TEME
TIME_SYSTEM    = UTC
MEAN_ELEMENT_THEORY = SGP/SGP4

EPOCH          = 2026-02-27T07:31:07.926816
MEAN_MOTION    = 12.50477932
ECCENTRICITY   = .12301592
INCLINATION    = 82.5970
RA_OF_ASC_NODE = 179.8456
ARG_OF_PERICENTER = 208.4642
MEAN_ANOMALY   = 144.3625

EPHEMERIS_TYPE = 0
CLASSIFICATION_TYPE = U
NORAD_CAT_ID   = 20262
ELEMENT_SET_NO = 999
REV_AT_EPOCH   = 65885
BSTAR          = .19179176E-3
MEAN_MOTION_DOT = .643E-5
MEAN_MOTION_DDOT = 0

CCSDS_OMM_VERS = 2.0
CREATION_DATE  = 
ORIGINATOR     = 

OBJECT_NAME    = DELTA 1 R/B
OBJECT_ID      = 1989-089B
CENTER_NAME    = EARTH
REF_FRAME      = TEME
TIME_SYSTEM    = UTC
MEAN_ELEMENT_THEORY = SGP/SGP4

EPOCH          = 2026-02-27T03:16:26.835744
MEAN_MOTION    = 14.50652937
ECCENTRICITY   = .00697629
INCLINATION    = 97.0712
RA_OF_ASC_NODE = 267.2532
ARG_OF_PERICENTER = 154.8827
MEAN_ANOMALY   = 205.5791

EPHEMERIS_TYPE = 0
CLASSIFICATION_TYPE = U
NORAD_CAT_ID   = 20323
ELEMENT_SET_NO = 999
REV_AT_EPOCH   = 89420
BSTAR          = .96007923E-4
MEAN_MOTION_DOT = .354E-5
MEAN_MOTION_DDOT = 0

CCSDS_OMM_VERS = 2.0
CREATION_DATE  = 
ORIGINATOR     = 

OBJECT_NAME    = ARIANE 40 R/B
OBJECT_ID      = 1990-005H
CENTER_NAME    = EARTH
REF_FRAME      = TEME
TIME_SYSTEM    = UTC
MEAN_ELEMENT_THEORY = SGP/SGP4

EPOCH          = 2026-02-27T04:21:09.753696
MEAN_MOTION    = 14.39862449
ECCENTRICITY   = .00092169
INCLINATION    = 98.3107
RA_OF_ASC_NODE = 119.1548
ARG_OF_PERICENTER = 231.5826
MEAN_ANOMALY   = 128.4535

EPHEMERIS_TYPE = 0
CLASSIFICATION_TYPE = U
NORAD_CAT_ID   = 20443
ELEMENT_SET_NO = 999
REV_AT_EPOCH   = 89129
BSTAR          = .10046397E-3
MEAN_MOTION_DOT = .273E-5
MEAN_MOTION_DDOT = 0

